ZHUHAI-1 03E            
1 44539U 19060F   26034.14070510  .00024943  00000+0  71932-3 0  9990
2 44539  97.5414 180.1068 0007019 141.2440 218.9307 15.35677927355155
ATLAS 5 CENTAUR DEB     
1 44694U 18079BG  26031.89062038 -.00000175  00000+0  00000+0 0  9992
2 44694  13.4770  50.4497 4749911 277.1523  32.9649  1.77427786 44147
GAOFEN-7                
1 44703U 19072A   26027.84512198  .00001206  00000+0  56487-4 0  9994
2 44703  97.2633  94.4513 0014018 162.5116 197.6606 15.21498801346302
JILIN-1 GAOFEN 2A       
1 44777U 19075A   26034.18343443  .00017045  00000+0  50072-3 0  9999
2 44777  97.5073 115.1988 0006596 194.9519 165.1530 15.35179050344298
NINGXIA-1 1             
1 44779U 19076A   26034.21585337 -.00000051  00000+0  50867-4 0  9999
2 44779  45.0064  58.5356 0012421 244.8727 115.0819 14.02016808319051
NINGXIA-1 5             
1 44783U 19076E   26034.15855741 -.00000144  00000+0 -90291-5 0  9996
2 44783  45.0060  58.1440 0012135 234.7787 125.1912 14.02000593318967
KL-ALPHA A              
1 44785U 19077A   26034.19420105  .00000036  00000+0  34226-4 0  9998
2 44785  88.9124 237.2751 0012263 133.0895 227.1287 13.56028339307573
CARTOSAT-3              
1 44804U 19081A   26034.19031462  .00005997  00000+0  28716-3 0  9996
2 44804  97.4496  98.0847 0012354 262.4557  97.5274 15.19254726343122
JILIN-1 GAOFEN 2B       
1 44836U 19086A   26034.16859587  .00007336  00000+0  35377-3 0  9999
2 44836  97.5035 107.0845 0015814  69.5398 290.7533 15.18892938340134
ANGELS                  
1 44876U 19092D   26034.11270651  .00109121  00000+0  88415-3 0  9990
2 44876  97.4258 246.7291 0004064 352.4356   7.6844 15.70428267341187
TIANQIN 1 (CAS-6)       
1 44879U 19093A   26034.16653477  .00005191  00000+0  48388-3 0  9997
2 44879  97.7889 119.0239 0012216 136.9677 223.2501 14.94625094332027
ETRSS-1                 
1 44880U 19093B   26022.49285859  .00002543  00000+0  23882-3 0  9997
2 44880  97.7915 107.7854 0011794 175.2973 184.8360 14.94798964330289
TIANYAN 01              
1 44881U 19093C   26034.14918396  .00001169  00000+0  13877-3 0  9998
2 44881  97.7683 109.5943 0013893 162.6757 197.4936 14.86255232331505
TIANYAN 02              
1 44882U 19093D   26034.22015515  .00009078  00000+0  67332-3 0  9991
2 44882  97.7930 127.9443 0014955 115.7418 244.5353 15.03222067332477
CBERS 4A                
1 44883U 19093E   26034.16746087  .00001632  00000+0  21350-3 0  9998
2 44883  97.7670 105.6302 0000315 274.1814  85.9363 14.81731494331236
WEILAI 1R               
1 44884U 19093F   26034.24081630  .00007337  00000+0  60494-3 0  9994
2 44884  97.7932 124.0145 0010539 133.9727 226.2367 14.99290532332341
FLORIPASAT-1            
1 44885U 19093G   26034.21788031  .00009667  00000+0  73802-3 0  9996
2 44885  97.7905 127.6574 0011943 159.1325 201.0389 15.02139517332526
SHUNTIAN                
1 44886U 19093H   26034.19350684  .00005432  00000+0  50942-3 0  9999
2 44886  97.8067 123.1082 0012810 146.1903 214.0136 14.94357508332160
2019-093L               
1 44889U 19093L   26034.18096449  .00005836  00000+0  55629-3 0  9992
2 44889  97.7679 114.0522 0013174 133.3459 226.8861 14.93675933331795
ELEKTRO-L 3             
1 44903U 19095A   26033.36155038 -.00000106  00000+0  00000+0 0  9995
2 44903   0.0568  99.8485 0002508 202.7695  36.0757  1.00270817 22356
GONETS-M 14             
1 44905U 19096A   26034.17952480  .00000136  00000+0  90849-3 0  9990
2 44905  82.5258 167.7058 0014246  88.5598 271.7113 12.42866559277037
GONETS-M 15             
1 44906U 19096B   26034.12851190  .00000025  00000+0  10598-3 0  9992
2 44906  82.5278 168.1770 0016301 109.6676 250.6164 12.42866292276992
GONETS-M 16             
1 44907U 19096C   26034.15694748  .00000068  00000+0  41871-3 0  9995
2 44907  82.5224 167.1758 0011921 148.3681 211.8117 12.42887043276981
RS-44 & BREEZE-KM R/B   
1 44909U 19096E   26034.16112737  .00000030  00000+0  65773-4 0  9998
2 44909  82.5176  68.7705 0218651  97.7315 264.8672 12.79746828285201
JILIN-1 KUANFU 01       
1 45016U 20003A   26034.18988631  .00003673  00000+0  22782-3 0  9992
2 45016  97.5168 110.7659 0009278  58.4400 301.7734 15.10315377335100
XINGYUN-2 01            
1 45602U 20028A   26034.14899522  .00001147  00000+0  72296-4 0  9996
2 45602  97.4798  29.3217 0007935 314.1050  45.9526 15.11082433314596
XINGYUN-2 02            
1 45603U 20028B   26034.17181916  .00002383  00000+0  14691-3 0  9998
2 45603  97.5086  42.5639 0011686  20.4829 339.6868 15.10862275314593
HAIYANG-1D              
1 45721U 20036A   26034.16261023  .00000544  00000+0  20940-3 0  9996
2 45721  98.4431 338.8500 0002341 162.0918 198.0350 14.34185522295764
M2 PATHFINDER           
1 45727U 20037E   26034.08438910  .00003596  00000+0  26521-3 0  9996
2 45727  97.8124 223.8359 0010896 244.7882 115.2214 15.03911641305330
GAOFEN DUOMO (GFDM)     
1 45856U 20042A   26034.19121814  .00000727  00000+0  11045-3 0  9997
2 45856  97.7946  98.8391 0012075 138.2014 222.0121 14.76827962301235
ZIYUAN 3-03 (ZY 3-03)   
1 45939U 20051A   26034.20794909  .00006308  00000+0  28466-3 0  9998
2 45939  97.3003 106.1587 0006427  80.4509 279.7453 15.21320957306974
TYVAK-0172              
1 46267U 20059C   26034.12209683  .00114188  00000+0  15287-2 0  9994
2 46267  97.7262 273.3553 0004559  74.2930 285.8827 15.57603916297726
ION-MK01                
1 46274U 20061C   26034.13341162  .00104436  00000+0  62996-3 0  9990
2 46274  97.2073 111.3720 0000876  77.0057 283.1307 15.77359297302188
NEMO-HD                 
1 46277U 20061F   26034.16329744  .00011887  00000+0  28383-3 0  9997
2 46277  97.2119  97.6155 0002107 120.3994 239.7462 15.41668975301311
3CAT-5A                 
1 46292U 20061W   26034.14520107  .00016715  00000+0  39927-3 0  9999
2 46292  97.2610  97.4931 0000806 203.3065 156.8145 15.41582215300340
3CAT-5B                 
1 46293U 20061X   26034.16826441  .00019654  00000+0  45297-3 0  9994
2 46293  97.2612  98.2587 0000978 214.4436 145.6749 15.42627038300366
NAPA-1                  
1 46320U 20061BA  26034.20226133  .00043877  00000+0  68560-3 0  9994
2 46320  97.2669 105.3834 0001060 109.5602 250.5767 15.53673508300840
JILIN-1 GAOFEN 3B       
1 46454U 20065A   26034.13502917  .00099307  00000+0  81236-3 0  9999
2 46454  97.2456  90.2348 0002227 226.6834 133.4244 15.70235394299288
JILIN-1 GAOFEN 3E       
1 46457U 20065D   26034.14713695  .00036891  00000+0  63540-3 0  9997
2 46457  97.2509  84.8211 0013698 299.0875  60.9005 15.50879496298903
JILIN-1 GAOFEN 3F       
1 46458U 20065E   26034.13655382  .00034803  00000+0  62846-3 0  9994
2 46458  97.2454  82.6180 0014847 284.2525  75.7077 15.49530937298870
JILIN-1 GAOFEN 3G       
1 46459U 20065F   26034.18335703  .00047424  00000+0  72147-3 0  9990
2 46459  97.2537  87.9206 0013969 183.1310 176.9859 15.54283431299023
JILIN-1 GAOFEN 3H       
1 46460U 20065G   26034.17045922  .00042885  00000+0  68248-3 0  9995
2 46460  97.2476  84.7609 0009982 118.7354 241.4903 15.53114594298996
JILIN-1 GAOFEN 3J       
1 46462U 20065J   26034.16247712  .00086125  00000+0  79185-3 0  9994
2 46462  97.2483  89.7552 0002902 230.0526 130.0481 15.67413792299253
HAIYANG-2C              
1 46469U 20066A   26034.20356056  .00000156  00000+0  21504-3 0  9991
2 46469  65.9954 188.8726 0013180 254.6041 105.3572 13.83376935270969
HJ-2A                   
1 46478U 20067A   26034.19013853  .00001235  00000+0  18422-3 0  9999
2 46478  97.8945 115.6774 0002927   3.0804 357.0423 14.76563249288480
HJ-2B                   
1 46479U 20067B   26034.15882356  .00000725  00000+0  11105-3 0  9992
2 46479  97.9002 116.5681 0001250  94.6076 265.5276 14.76559331288484
GONETS-M 17             
1 46486U 20068A   26034.17996764  .00000041  00000+0  22530-3 0  9997
2 46486  82.4941  70.8720 0021745 330.4684  29.5166 12.42868005242518
GONETS-M 18             
1 46487U 20068B   26034.14394069  .00000089  00000+0  57109-3 0  9997
2 46487  82.4894  70.0633 0019082 327.5223  32.4681 12.42895806242499
GONETS-M 19             
1 46488U 20068C   26034.20164490  .00000095  00000+0  61655-3 0  9996
2 46488  82.4920  70.4528 0013051 344.3636  15.7039 12.42887425242604
DEKART                  
1 46493U 20068H   26034.23887884  .00015275  00000+0  46929-3 0  9997
2 46493  97.8752  34.2627 0011344  49.1907 311.0316 15.33754756295213
NORBI                   
1 46494U 20068J   26034.19371804  .00026249  00000+0  61564-3 0  9998
2 46494  97.8682  38.9492 0008673  40.3389 319.8499 15.42014079295513
SALSAT                  
1 46495U 20068K   26033.50211569  .00009220  00000+0  34576-3 0  9997
2 46495  97.8821  28.6199 0012025  60.4103 299.8331 15.27419284294782
ICEYE-X6                
1 46497U 20068M   26034.20814476  .00003014  00000+0  22537-3 0  9992
2 46497  98.0899  21.6256 0007629 162.7336 197.4149 15.03577437293099
NETSAT-4                
1 46504U 20068U   26033.49432224  .00018538  00000+0  48343-3 0  9998
2 46504  97.8616  31.4095 0008555  84.4756 275.7463 15.38863513295022
NETSAT-3                
1 46505U 20068V   26033.51875902  .00021268  00000+0  57936-3 0  9998
2 46505  97.8648  29.8553 0008316  96.1917 264.0274 15.37486526294958
NETSAT-1                
1 46506U 20068W   26034.18526853  .00016243  00000+0  54675-3 0  9995
2 46506  97.8711  26.3576 0007848 109.0961 251.1129 15.30841085294773
NETSAT-2                
1 46507U 20068X   26033.47128321  .00021579  00000+0  54640-3 0  9995
2 46507  97.8631  30.9235 0007011 105.9404 254.2613 15.39745569294969
TIANQI-6                
1 46810U 20076D   26033.55631494  .00005284  00000+0  35613-3 0  9994
2 46810  34.9987 154.0871 0010099  63.2665 296.9078 15.06040838288266
KSM1-C                  
1 46906U 20081B   26033.65910675  .00013566  00000+0  54891-3 0  9999
2 46906  36.8929 167.9181 0003050 180.3259 179.7488 15.24074639288613
